*******************************************************************************
 Revised: Oct 03, 2018            Atlas  / (Saturn)                         615

 SATELLITE PHYSICAL PROPERTIES:
  Radius (km)            = 18.5x17.2x13.5   Density (g cm^-3)   = 
  Mass (10^20 kg )       =                  Geometric Albedo    =  0.5
                                            V(1,0)              = +9.5 

 SATELLITE ORBITAL DATA:
  Semi-major axis, a (km) = 137.64 (10^3)   Orbital period      = 0.6019 d
  Eccentricity, e         = ~0              Rotational period   = 
  Inclination, i  (deg)   = ~0      
*******************************************************************************
 
 
*******************************************************************************
Ephemeris / WWW_USER Wed Jun 17 13:28:34 2020 Pasadena, USA      / Horizons
*******************************************************************************
Target body name: Atlas (615)                     {source: sat415_merged_DE437}
Center body name: Solar System Barycenter (0)     {source: DE431mx}
Center-site name: BODY CENTER
*******************************************************************************
Start time      : A.D. 2000-Jun-05 00:00:00.0000 TDB
Stop  time      : A.D. 2040-May-26 00:00:00.0000 TDB
Step-size       : 14400 minutes
*******************************************************************************
Center geodetic : 0.00000000,0.00000000,0.0000000 {E-lon(deg),Lat(deg),Alt(km)}
Center cylindric: 0.00000000,0.00000000,0.0000000 {E-lon(deg),Dxy(km),Dz(km)}
Center radii    : (undefined)                                                  
Output units    : AU-D
Output type     : GEOMETRIC cartesian states
Output format   : 3 (position, velocity, LT, range, range-rate)
Reference frame : Ecliptic of J2000.0
*******************************************************************************
JDTDB
   X     Y     Z
   VX    VY    VZ
   LT    RG    RR
*******************************************************************************
$$SOE
2451960.500000000 = A.D. 2001-Feb-20 00:00:00.0000 TDB 
 X = 4.425872962409149E+00 Y = 7.943788211635489E+00 Z =-3.142498215756719E-01
 VX=-2.345917525494132E-03 VY= 1.073569333745652E-02 VZ=-4.323813171977508E-03
 LT= 5.255114759574681E-02 RG= 9.098949147075372E+00 RR= 8.380978672908204E-03
2451970.500000000 = A.D. 2001-Mar-02 00:00:00.0000 TDB 
 X = 4.372411645884426E+00 Y = 7.970607933152460E+00 Z =-3.124667527503439E-01
 VX=-9.899781685224584E-04 VY=-5.137310546585888E-03 VZ= 3.845643297688033E-03
 LT= 5.253697000899633E-02 RG= 9.096494374025250E+00 RR=-5.109409628953824E-03
2451980.500000000 = A.D. 2001-Mar-12 00:00:00.0000 TDB 
 X = 4.321633109124046E+00 Y = 7.998239795649278E+00 Z =-3.115378738555302E-01
 VX=-1.416380427133802E-02 VY= 6.016868262734007E-03 VZ=-7.407444300578612E-04
 LT= 5.253671556819871E-02 RG= 9.096450318966811E+00 RR=-1.413259008777648E-03
2451990.500000000 = A.D. 2001-Mar-22 00:00:00.0000 TDB 
 X = 4.269555923323618E+00 Y = 8.022960237111580E+00 Z =-3.091269484817873E-01
 VX= 3.633219125217740E-03 VY= 5.484556365387899E-03 VZ=-2.202539339408853E-03
 LT= 5.251993506782951E-02 RG= 9.093544865394295E+00 RR= 6.619582905285733E-03
2452000.500000000 = A.D. 2001-Apr-01 00:00:00.0000 TDB 
 X = 4.216101177514453E+00 Y = 8.050025157842031E+00 Z =-3.079809477107825E-01
 VX=-9.194043597162797E-03 VY=-5.021155423232919E-03 VZ= 4.528555952536624E-03
 LT= 5.251380838706830E-02 RG= 9.092484063504385E+00 RR=-8.862061666077278E-03
2452010.500000000 = A.D. 2001-Apr-11 00:00:00.0000 TDB 
 X = 4.165372538280069E+00 Y = 8.075488438113187E+00 Z =-3.064301296297082E-01
 VX=-8.309227431049190E-03 VY= 1.073167059384940E-02 VZ=-3.828943790380668E-03
 LT= 5.250887739970225E-02 RG= 9.091630289508169E+00 RR= 5.854368918862510E-03
2452020.500000000 = A.D. 2001-Apr-21 00:00:00.0000 TDB 
 X = 4.111469085403194E+00 Y = 8.099847551544604E+00 Z =-3.041638817598428E-01
 VX= 3.179922841988281E-03 VY=-1.828645412611057E-03 VZ= 1.621939578081244E-03
 LT= 5.249187605187351E-02 RG= 9.088686597383393E+00 RR=-2.454623144195605E-04
2452030.500000000 = A.D. 2001-May-01 00:00:00.0000 TDB 
 X = 4.058899240920810E+00 Y = 8.126319238387349E+00 Z =-3.033050122395303E-01
 VX=-1.453849977618116E-02 VY= 6.505796191138120E-04 VZ= 2.022845431638220E-03
 LT= 5.249171632089551E-02 RG= 9.088658940821881E+00 RR=-5.978552781324836E-03
2452040.500000000 = A.D. 2001-May-11 00:00:00.0000 TDB 
 X = 4.006993260538568E+00 Y = 8.149708995911277E+00 Z =-3.010674568565393E-01
 VX=-2.663751597358873E-04 VY= 9.483002693641525E-03 VZ=-4.004786675544624E-03
 LT= 5.247921905647460E-02 RG= 9.086495106564289E+00 RR= 8.520563641146117E-03
2452050.500000000 = A.D. 2001-May-21 00:00:00.0000 TDB 
 X = 3.952226817078555E+00 Y = 8.174370868862786E+00 Z =-2.993914266165254E-01
 VX=-3.434543126957088E-03 VY=-6.012933837921433E-03 VZ= 4.403486450147260E-03
 LT= 5.246831006558508E-02 RG= 9.084606273343876E+00 RR=-7.049772859192879E-03
2452060.500000000 = A.D. 2001-May-31 00:00:00.0000 TDB 
 X = 3.900418231172831E+00 Y = 8.199143907341712E+00 Z =-2.982326975937402E-01
 VX=-1.312625776357070E-02 VY= 7.623270078826454E-03 VZ=-1.819537765016779E-03
 LT= 5.246770444607788E-02 RG= 9.084501413576760E+00 RR= 1.304313627058444E-03
2452070.500000000 = A.D. 2001-Jun-10 00:00:00.0000 TDB 
 X = 3.846614170092415E+00 Y = 8.221363888682452E+00 Z =-2.957161641794569E-01
 VX= 4.152807270373345E-03 VY= 3.115179309063546E-03 VZ=-1.147840234466315E-03
 LT= 5.245071014640963E-02 RG= 9.081558941803143E+00 RR= 4.616465647591754E-03
2452080.500000000 = A.D. 2001-Jun-20 00:00:00.0000 TDB 
 X = 3.792228512224896E+00 Y = 8.246074358546103E+00 Z =-2.946216186747464E-01
 VX=-1.139559236219691E-02 VY=-4.037764152155251E-03 VZ= 4.087865122420624E-03
 LT= 5.244779370676506E-02 RG= 9.081053975932173E+00 RR=-8.557901688044267E-03
2452090.500000000 = A.D. 2001-Jun-30 00:00:00.0000 TDB 
 X = 3.740158899935491E+00 Y = 8.268580733367243E+00 Z =-2.927702889508001E-01
 VX=-6.059472432930856E-03 VY= 1.081428543439430E-02 VZ=-4.228496222800970E-03
 LT= 5.244092101857465E-02 RG= 9.079864006859957E+00 RR= 7.488369919266801E-03
2452100.500000000 = A.D. 2001-Jul-10 00:00:00.0000 TDB 
 X = 3.684772083201791E+00 Y = 8.290682857951836E+00 Z =-2.905602774051648E-01
 VX= 1.626343293572733E-03 VY=-3.802965562790709E-03 VZ= 2.669625012666467E-03
 LT= 5.242611813029384E-02 RG= 9.077300966206058E+00 RR=-2.898677053581972E-03
2452110.500000000 = A.D. 2001-Jul-20 00:00:00.0000 TDB 
 X = 3.631393175168212E+00 Y = 8.314445743269891E+00 Z =-2.895896629003146E-01
 VX=-1.498987473201741E-02 VY= 2.533987580639281E-03 VZ= 9.405349438477802E-04
 LT= 5.242722958490576E-02 RG= 9.077493408606575E+00 RR=-3.705626016822167E-03
2452120.500000000 = A.D. 2001-Jul-30 00:00:00.0000 TDB 
 X = 3.577896849139252E+00 Y = 8.335054240655355E+00 Z =-2.871298631544655E-01
 VX= 1.516862352460540E-03 VY= 7.769921377277223E-03 VZ=-3.419861891085440E-03
 LT= 5.241324049822841E-02 RG= 9.075071273332375E+00 RR= 7.842565142448726E-03
2452130.500000000 = A.D. 2001-Aug-09 00:00:00.0000 TDB 
 X = 3.522066282074380E+00 Y = 8.357462879152626E+00 Z =-2.855627599536383E-01
 VX=-5.964743566545896E-03 VY=-6.326697465113431E-03 VZ= 4.674487847907590E-03
 LT= 5.240584614471749E-02 RG= 9.073790980709864E+00 RR=-8.289613593743994E-03
2452140.500000000 = A.D. 2001-Aug-19 00:00:00.0000 TDB 
 X = 3.469266696404579E+00 Y = 8.379258759510869E+00 Z =-2.841441542834328E-01
 VX=-1.158632777232916E-02 VY= 8.899031735740878E-03 VZ=-2.776635884543520E-03
 LT= 5.240420517856995E-02 RG= 9.073506856229018E+00 RR= 3.875039051712612E-03
2452150.500000000 = A.D. 2001-Aug-29 00:00:00.0000 TDB 
 X = 3.413896076919785E+00 Y = 8.399004434069310E+00 Z =-2.815784336912676E-01
 VX= 4.042231465525348E-03 VY= 6.992857767855070E-04 VZ=-1.246038798593309E-05
 LT= 5.238788264888384E-02 RG= 9.070680697822201E+00 RR= 2.169249664285750E-03
2452160.500000000 = A.D. 2001-Sep-08 00:00:00.0000 TDB 
 X = 3.358764744313388E+00 Y = 8.421205131469792E+00 Z =-2.804988142042058E-01
 VX=-1.320425163699052E-02 VY=-2.670886847002070E-03 VZ= 3.406872774419427E-03
 LT= 5.238770046178541E-02 RG= 9.070649153103966E+00 RR=-7.474402716269105E-03
2452170.500000000 = A.D. 2001-Sep-18 00:00:00.0000 TDB 
 X = 3.305382033471921E+00 Y = 8.440723112942846E+00 Z =-2.783600295199940E-01
 VX=-3.749562972682632E-03 VY= 1.031608661426959E-02 VZ=-4.331011573902240E-03
 LT= 5.237883817455038E-02 RG= 9.069114695636005E+00 RR= 8.367638484381292E-03
2452180.500000000 = A.D. 2001-Sep-28 00:00:00.0000 TDB 
 X = 3.248744902823742E+00 Y = 8.460541319295837E+00 Z =-2.762406425307085E-01
 VX=-3.385757562312670E-04 VY=-5.396240029073598E-03 VZ= 3.552821329674228E-03
 LT= 5.236691859856211E-02 RG= 9.067050885029882E+00 RR=-5.264831117559131E-03
2452190.500000000 = A.D. 2001-Oct-08 00:00:00.0000 TDB 
 X = 3.194649080842172E+00 Y = 8.481442932465953E+00 Z =-2.751126328430388E-01
 VX=-1.478919895442249E-02 VY= 4.402531443676191E-03 VZ=-1.995356544694511E-04
 LT= 5.236848942036217E-02 RG= 9.067322864393448E+00 RR=-1.086493446444968E-03
2452200.500000000 = A.D. 2001-Oct-18 00:00:00.0000 TDB 
 X = 3.139653374648118E+00 Y = 8.499300579750928E+00 Z =-2.724807079786533E-01
 VX= 2.857406258176529E-03 VY= 5.716706522633367E-03 VZ=-2.614314020864684E-03
 LT= 5.235365745685040E-02 RG= 9.064754789519370E+00 RR= 6.428372719575979E-03
2452210.500000000 = A.D. 2001-Oct-28 00:00:00.0000 TDB 
 X = 3.082988962005651E+00 Y = 8.519347878997639E+00 Z =-2.710128815075657E-01
 VX=-8.470244765776357E-03 VY=-6.090212343010596E-03 VZ= 4.650945070246007E-03
 LT= 5.234976368900791E-02 RG= 9.064080604516560E+00 RR=-8.744270732894185E-03
